OBJECT_NAME,OBJECT_ID,EPOCH,MEAN_MOTION,ECCENTRICITY,INCLINATION,RA_OF_ASC_NODE,ARG_OF_PERICENTER,MEAN_ANOMALY,EPHEMERIS_TYPE,CLASSIFICATION_TYPE,NORAD_CAT_ID,ELEMENT_SET_NO,REV_AT_EPOCH,BSTAR,MEAN_MOTION_DOT,MEAN_MOTION_DDOT
COSMOS 2058,1990-010A,2026-07-15T07:49:36.979680,15.12156761,.00079448,82.4672,281.6030,249.4761,110.5617,0,U,20465,999,96152,.93652249E-4,.1645E-4,0
SL-14 R/B,1990-010B,2026-07-15T08:36:50.038272,14.83663108,.00183932,82.5035,147.4888,236.7102,123.2352,0,U,20466,999,94741,.18975556E-4,.181E-5,0
SL-14 R/B,1990-018B,2026-07-15T05:30:39.655296,14.82234078,.00170278,82.5217,103.8982,36.7448,323.4930,0,U,20511,999,94147,.23627316E-4,.213E-5,0
HST,1990-037B,2026-07-15T12:00:30.574368,15.31063070,.00021916,28.4723,247.0189,106.0764,254.0074,0,U,20580,999,79291,.10487846E-3,.3469E-4,0
SL-16 R/B,1990-046B,2026-07-15T00:18:08.569152,14.15024634,.00124123,70.9985,30.5073,114.6976,245.5440,0,U,20625,999,86640,.14972553E-3,.243E-5,0
COSMOS 2084,1990-055A,2026-07-15T13:02:28.972032,15.06224618,.00081316,62.7883,259.2988,318.5258,41.5225,0,U,20663,999,95557,.69635034E-4,.823E-5,0
SL-6 R/B(2),1990-055D,2026-07-15T08:55:46.914528,15.04088201,.00451889,62.7806,179.4588,9.0198,351.1703,0,U,20666,999,95739,.8311638E-4,.971E-5,0
SL-8 R/B,1990-078B,2026-07-15T08:13:46.960896,14.93578027,.03434223,82.9038,136.1775,303.0324,53.8333,0,U,20775,999,82832,.27261121E-3,.9617E-4,0
SL-8 R/B,1991-006B,2026-07-15T04:24:45.898848,13.77509240,.00234376,82.9408,75.2045,40.5676,72.3777,0,U,21088,999,78162,.7854684E-4,.94E-6,0
OKEAN-3,1991-039A,2026-07-15T14:06:24.469344,15.05436046,.00124288,82.5143,212.8374,253.2175,106.7688,0,U,21397,999,88427,.12513221E-3,.1826E-4,0
COSMOS 2151,1991-042A,2026-07-15T12:50:35.455776,15.00513689,.0011927,82.4982,320.3228,354.3546,5.7542,0,U,21422,999,88236,.56289282E-4,.737E-5,0
SL-14 R/B,1991-042B,2026-07-15T05:48:40.554720,14.81918059,.0016981,82.4932,100.5875,176.7614,183.3713,0,U,21423,999,87196,.19545979E-4,.179E-5,0
ERS-1,1991-050A,2026-07-15T12:34:15.404160,14.39533280,.00318737,98.7796,217.9137,180.7928,179.3214,0,U,21574,999,83412,.66621684E-4,.163E-5,0
ARIANE 40 R/B,1991-050F,2026-07-15T03:11:00.370752,14.42971868,.00041607,98.1863,243.4589,61.5815,298.5795,0,U,21610,999,83737,.48798445E-4,.122E-5,0
INTERCOSMOS 25,1991-086A,2026-07-15T12:08:27.606048,12.12240510,.14845971,82.6007,232.6730,201.2546,152.0077,0,U,21819,999,51217,.17864439E-4,.105E-5,0
SL-8 R/B,1992-008B,2026-07-15T11:56:20.906016,13.75983854,.00356735,82.9272,172.7386,135.7913,345.7543,0,U,21876,999,72699,.82493734E-4,.96E-6,0
SL-8 R/B,1992-020B,2026-07-15T13:38:37.371840,13.75550220,.00279431,82.9280,58.7729,302.4251,121.9465,0,U,21938,999,71871,-.1544878E-5,.13E-6,0
USA 81,1992-023A,2026-07-15T03:32:17.350656,14.32404929,.00019781,85.0051,57.8662,64.8606,295.2791,0,U,21949,999,11303,.31870867E-4,.106E-5,0
COSMOS 2219,1992-076A,2026-07-15T04:51:39.585600,14.14108726,.0018271,71.0612,111.5082,357.4433,2.6593,0,U,22219,999,73640,-.870929E-4,-.213E-5,0
SL-16 R/B,1992-076B,2026-07-15T13:24:48.821760,14.16877561,.00150329,71.0005,279.0154,261.7211,195.1909,0,U,22220,999,73994,.88046647E-4,.129E-5,0
COSMOS 2221,1992-080A,2026-07-15T14:55:34.951584,14.96604806,.00157451,82.5046,156.5215,118.9569,241.3234,0,U,22236,999,79992,.72502608E-4,.854E-5,0
SL-16 R/B,1992-093B,2026-07-15T03:45:51.890112,14.15465838,.00022723,71.0217,96.6759,134.9579,225.1729,0,U,22285,999,73119,-.95111108E-4,-.233E-5,0
COSMOS 2228,1992-094A,2026-07-15T11:36:15.146496,14.97676171,.00163292,82.5188,114.9394,228.1102,131.8729,0,U,22286,999,79518,.69854161E-4,.846E-5,0
SL-16 R/B,1993-016B,2026-07-15T11:50:18.804480,14.15312764,.00088307,71.0085,306.7547,137.4368,222.7441,0,U,22566,999,72025,.13276091E-3,.211E-5,0
COSMOS 2242,1993-024A,2026-07-15T07:44:04.255872,14.96984995,.00146774,82.5199,144.6252,232.1628,127.8267,0,U,22626,999,79948,.72849773E-4,.866E-5,0
SL-16 R/B,1993-059B,2026-07-15T05:28:14.937024,14.17249483,.00166517,70.9901,102.1717,8.4623,351.6778,0,U,22803,999,69760,-.42592955E-4,-.134E-5,0
ARIANE 40 R/B,1993-061H,2026-07-15T04:57:12.407904,14.32918541,.00094967,98.4806,262.4796,265.7246,94.2853,0,U,22830,999,71236,.42964102E-4,.74E-6,0
COSMOS 2278,1994-023A,2026-07-15T12:51:52.762176,14.14393277,.00096155,71.0523,267.6132,205.0482,155.0175,0,U,23087,999,66288,.3365935E-4,.17E-6,0
SL-16 R/B,1994-023B,2026-07-15T07:30:47.858688,14.15024540,.00013972,70.9984,162.8641,127.7315,232.3935,0,U,23088,999,66414,.85856458E-4,.119E-5,0
SL-16 R/B,1994-074B,2026-07-15T13:30:51.554016,14.79524523,.00071956,97.6986,222.1005,153.1639,324.9281,0,U,23343,999,70615,.32732596E-4,.196E-5,0
