COSMOS 2058             
1 20465U 90010A   26196.32612245  .00001645  00000+0  93652-4 0  9990
2 20465  82.4672 281.6030 0007944 249.4761 110.5617 15.12156761961524
SL-14 R/B               
1 20466U 90010B   26196.35891248  .00000181  00000+0  18976-4 0  9996
2 20466  82.5035 147.4888 0018393 236.7102 123.2352 14.83663108947411
SL-14 R/B               
1 20511U 90018B   26196.22962564  .00000213  00000+0  23627-4 0  9996
2 20511  82.5217 103.8982 0017027  36.7448 323.4930 14.82234078941474
HST                     
1 20580U 90037B   26196.50035387  .00003469  00000+0  10488-3 0  9994
2 20580  28.4723 247.0189 0002191 106.0764 254.0074 15.31063070792917
SL-16 R/B               
1 20625U 90046B   26196.01259918  .00000243  00000+0  14973-3 0  9998
2 20625  70.9985  30.5073 0012412 114.6976 245.5440 14.15024634866405
COSMOS 2084             
1 20663U 90055A   26196.54339088  .00000823  00000+0  69635-4 0  9995
2 20663  62.7883 259.2988 0008131 318.5258  41.5225 15.06224618955576
SL-6 R/B(2)             
1 20666U 90055D   26196.37207077  .00000971  00000+0  83116-4 0  9995
2 20666  62.7806 179.4588 0045188   9.0198 351.1703 15.04088201957398
SL-8 R/B                
1 20775U 90078B   26196.34290464  .00009617  00000+0  27261-3 0  9994
2 20775  82.9038 136.1775 0343422 303.0324  53.8333 14.93578027828320
SL-8 R/B                
1 21088U 91006B   26196.18386457  .00000094  00000+0  78547-4 0  9998
2 21088  82.9408  75.2045 0023437  40.5676  72.3777 13.77509240781627
OKEAN-3                 
1 21397U 91039A   26196.58778321  .00001826  00000+0  12513-3 0  9990
2 21397  82.5143 212.8374 0012428 253.2175 106.7688 15.05436046884275
COSMOS 2151             
1 21422U 91042A   26196.53513259  .00000737  00000+0  56289-4 0  9994
2 21422  82.4982 320.3228 0011927 354.3546   5.7542 15.00513689882364
SL-14 R/B               
1 21423U 91042B   26196.24213605  .00000179  00000+0  19546-4 0  9990
2 21423  82.4932 100.5875 0016981 176.7614 183.3713 14.81918059871968
ERS-1                   
1 21574U 91050A   26196.52378940  .00000163  00000+0  66622-4 0  9991
2 21574  98.7796 217.9137 0031873 180.7928 179.3214 14.39533280834127
ARIANE 40 R/B           
1 21610U 91050F   26196.13264318  .00000122  00000+0  48798-4 0  9991
2 21610  98.1863 243.4589 0004160  61.5815 298.5795 14.42971868837372
INTERCOSMOS 25          
1 21819U 91086A   26196.50587507  .00000105  00000+0  17864-4 0  9991
2 21819  82.6007 232.6730 1484597 201.2546 152.0077 12.12240510512173
SL-8 R/B                
1 21876U 92008B   26196.49746419  .00000096  00000+0  82494-4 0  9996
2 21876  82.9272 172.7386 0035673 135.7913 345.7543 13.75983854726990
SL-8 R/B                
1 21938U 92020B   26196.56848810  .00000013  00000+0 -15449-5 0  9992
2 21938  82.9280  58.7729 0027943 302.4251 121.9465 13.75550220718716
USA 81                  
1 21949U 92023A   26196.14742304  .00000106  00000+0  31871-4 0  9990
2 21949  85.0051  57.8662 0001978  64.8606 295.2791 14.32404929113036
COSMOS 2219             
1 22219U 92076A   26196.20254150 -.00000213  00000+0 -87093-4 0  9991
2 22219  71.0612 111.5082 0018271 357.4433   2.6593 14.14108726736400
SL-16 R/B               
1 22220U 92076B   26196.55889840  .00000129  00000+0  88047-4 0  9995
2 22220  71.0005 279.0154 0015032 261.7211 195.1909 14.16877561739944
COSMOS 2221             
1 22236U 92080A   26196.62193231  .00000854  00000+0  72503-4 0  9992
2 22236  82.5046 156.5215 0015745 118.9569 241.3234 14.96604806799927
SL-16 R/B               
1 22285U 92093B   26196.15685058 -.00000233  00000+0 -95111-4 0  9994
2 22285  71.0217  96.6759 0002272 134.9579 225.1729 14.15465838731196
COSMOS 2228             
1 22286U 92094A   26196.48350864  .00000846  00000+0  69854-4 0  9999
2 22286  82.5188 114.9394 0016329 228.1102 131.8729 14.97676171795182
SL-16 R/B               
1 22566U 93016B   26196.49327320  .00000211  00000+0  13276-3 0  9999
2 22566  71.0085 306.7547 0008830 137.4368 222.7441 14.15312764720259
COSMOS 2242             
1 22626U 93024A   26196.32227148  .00000866  00000+0  72850-4 0  9994
2 22626  82.5199 144.6252 0014677 232.1628 127.8267 14.96984995799481
SL-16 R/B               
1 22803U 93059B   26196.22795066 -.00000134  00000+0 -42593-4 0  9998
2 22803  70.9901 102.1717 0016651   8.4623 351.6778 14.17249483697602
ARIANE 40 R/B           
1 22830U 93061H   26196.20639361  .00000074  00000+0  42964-4 0  9997
2 22830  98.4806 262.4796 0009496 265.7246  94.2853 14.32918541712366
COSMOS 2278             
1 23087U 94023A   26196.53602734  .00000017  00000+0  33659-4 0  9999
2 23087  71.0523 267.6132 0009615 205.0482 155.0175 14.14393277662884
SL-16 R/B               
1 23088U 94023B   26196.31305392  .00000119  00000+0  85856-4 0  9995
2 23088  70.9984 162.8641 0001397 127.7315 232.3935 14.15024540664148
SL-16 R/B               
1 23343U 94074B   26196.56309669  .00000196  00000+0  32733-4 0  9994
2 23343  97.6986 222.1005 0007195 153.1639 324.9281 14.79524523706154
